{
  "type": "FeatureCollection",
  "name": "Rey County authored boundary",
  "features": [
    {
      "type": "Feature",
      "id": "rey-county-boundary-v1",
      "properties": {
        "name": "REY COUNTY",
        "kind": "county_candidate_boundary",
        "authority": "authored_candidate_only",
        "coordinate_note": "arbitrary OGC CRS84 editor extent; not an Earth survey",
        "label_run": "blake3:70e6615ebcd02f121f506c5e0bb34389255a72d51019f5de846f28dc55922d7a"
      },
      "geometry": {
        "type": "Polygon",
        "coordinates": [[
          [-160.0, -20.0],
          [-159.78, -19.93],
          [-159.55, -19.98],
          [-159.28, -19.88],
          [-159.12, -19.62],
          [-159.18, -19.36],
          [-159.46, -19.25],
          [-159.73, -19.3],
          [-159.94, -19.48],
          [-160.0, -20.0]
        ]]
      }
    }
  ]
}
