{
  "type": "FeatureCollection",
  "name": "Rey County authored land-cover and validity features",
  "features": [
    {
      "type": "Feature",
      "id": "feature-nine-channel-meadow",
      "properties": {
        "name": "Nine Channel Meadow",
        "feature_class": "meadow",
        "basis": "nine projection field channels"
      },
      "geometry": {
        "type": "Polygon",
        "coordinates": [
          [
            [-159.59, -19.61],
            [-159.49, -19.61],
            [-159.45, -19.71],
            [-159.53, -19.78],
            [-159.63, -19.71],
            [-159.59, -19.61]
          ]
        ]
      }
    },
    {
      "type": "Feature",
      "id": "feature-omission-scrub",
      "properties": {
        "name": "Unexplored Scrub",
        "feature_class": "boundary_scrub",
        "basis": "unexplored remains distinct from surveyed evidence"
      },
      "geometry": {
        "type": "Polygon",
        "coordinates": [
          [
            [-159.92, -19.88],
            [-159.76, -19.86],
            [-159.7, -19.94],
            [-159.83, -19.97],
            [-159.92, -19.88]
          ]
        ]
      }
    }
  ]
}
