{
  "type": "FeatureCollection",
  "name": "Rey County authored highway candidates",
  "features": [
    {
      "type": "Feature",
      "id": "highway-context-way",
      "properties": {
        "name": "Context Way",
        "route_class": "primary_candidate",
        "authority": "authored_transport_candidate"
      },
      "geometry": {
        "type": "LineString",
        "coordinates": [
          [-159.948, -19.612],
          [-159.91, -19.606],
          [-159.869, -19.61],
          [-159.829, -19.622],
          [-159.789, -19.637],
          [-159.749, -19.65],
          [-159.707, -19.658],
          [-159.665, -19.661],
          [-159.622, -19.657],
          [-159.58, -19.65],
          [-159.54, -19.642],
          [-159.499, -19.64],
          [-159.458, -19.645],
          [-159.418, -19.652],
          [-159.377, -19.657],
          [-159.337, -19.653],
          [-159.297, -19.642],
          [-159.258, -19.625],
          [-159.218, -19.608],
          [-159.177, -19.599],
          [-159.142, -19.6]
        ]
      }
    },
    {
      "type": "Feature",
      "id": "highway-north-arc",
      "properties": {
        "name": "North Arc",
        "route_class": "secondary_candidate",
        "authority": "authored_transport_candidate"
      },
      "geometry": {
        "type": "LineString",
        "coordinates": [
          [-159.878, -19.475],
          [-159.845, -19.446],
          [-159.809, -19.421],
          [-159.769, -19.404],
          [-159.727, -19.395],
          [-159.684, -19.394],
          [-159.64, -19.398],
          [-159.596, -19.402],
          [-159.551, -19.402],
          [-159.507, -19.398],
          [-159.464, -19.399],
          [-159.424, -19.409],
          [-159.389, -19.43],
          [-159.36, -19.461],
          [-159.339, -19.498],
          [-159.325, -19.539],
          [-159.313, -19.58],
          [-159.297, -19.619],
          [-159.297, -19.642]
        ]
      }
    }
  ]
}
