{
  "type": "FeatureCollection",
  "name": "Rey County authored geographic labels",
  "features": [
    {
      "type": "Feature",
      "id": "label-rey-county",
      "properties": {
        "title": "REY COUNTY",
        "category": "county",
        "min_zoom": 3,
        "max_zoom": 8,
        "collision_priority": 100
      },
      "geometry": { "type": "Point", "coordinates": [-159.55, -19.57] }
    },
    {
      "type": "Feature",
      "id": "label-anchor-range",
      "properties": {
        "title": "Anchor Range",
        "category": "landform",
        "min_zoom": 5,
        "max_zoom": 15,
        "collision_priority": 88
      },
      "geometry": { "type": "Point", "coordinates": [-159.79, -19.4] }
    },
    {
      "type": "Feature",
      "id": "label-architecture-highlands",
      "properties": {
        "title": "Architecture Highlands",
        "category": "landform",
        "min_zoom": 6,
        "max_zoom": 15,
        "collision_priority": 76
      },
      "geometry": { "type": "Point", "coordinates": [-159.49, -19.37] }
    },
    {
      "type": "Feature",
      "id": "label-explorer-vale",
      "properties": {
        "title": "Explorer Vale",
        "category": "district",
        "min_zoom": 6,
        "max_zoom": 16,
        "collision_priority": 72
      },
      "geometry": { "type": "Point", "coordinates": [-159.27, -19.5] }
    },
    {
      "type": "Feature",
      "id": "label-runtime-basin",
      "properties": {
        "title": "Runtime Basin",
        "category": "landform",
        "min_zoom": 5,
        "max_zoom": 16,
        "collision_priority": 82
      },
      "geometry": { "type": "Point", "coordinates": [-159.55, -19.78] }
    },
    {
      "type": "Feature",
      "id": "label-mining-reach",
      "properties": {
        "title": "Mining Reach",
        "category": "district",
        "min_zoom": 6,
        "max_zoom": 16,
        "collision_priority": 70
      },
      "geometry": { "type": "Point", "coordinates": [-159.83, -19.76] }
    },
    {
      "type": "Feature",
      "id": "label-proof-escarpment",
      "properties": {
        "title": "Proof Escarpment",
        "category": "landform",
        "min_zoom": 6,
        "max_zoom": 16,
        "collision_priority": 74
      },
      "geometry": { "type": "Point", "coordinates": [-159.37, -19.84] }
    },
    {
      "type": "Feature",
      "id": "label-evidence-river",
      "properties": {
        "title": "Evidence River",
        "category": "water",
        "min_zoom": 5,
        "max_zoom": 18,
        "collision_priority": 84
      },
      "geometry": { "type": "Point", "coordinates": [-159.46, -19.67] }
    },
    {
      "type": "Feature",
      "id": "label-frontier-wetland",
      "properties": {
        "title": "Frontier Wetland",
        "category": "water",
        "min_zoom": 7,
        "max_zoom": 18,
        "collision_priority": 60
      },
      "geometry": { "type": "Point", "coordinates": [-159.23, -19.59] }
    },
    {
      "type": "Feature",
      "id": "label-anchor-crossing",
      "properties": {
        "title": "Anchor Crossing",
        "category": "settlement",
        "min_zoom": 6,
        "max_zoom": 18,
        "collision_priority": 67
      },
      "geometry": { "type": "Point", "coordinates": [-159.835, -19.58] }
    },
    {
      "type": "Feature",
      "id": "label-delta-junction",
      "properties": {
        "title": "Delta Junction",
        "category": "settlement",
        "min_zoom": 6,
        "max_zoom": 18,
        "collision_priority": 66
      },
      "geometry": { "type": "Point", "coordinates": [-159.632, -19.769] }
    },
    {
      "type": "Feature",
      "id": "label-foundry",
      "properties": {
        "title": "Foundry",
        "category": "settlement",
        "min_zoom": 6,
        "max_zoom": 18,
        "collision_priority": 64
      },
      "geometry": { "type": "Point", "coordinates": [-159.58, -19.65] }
    },
    {
      "type": "Feature",
      "id": "label-proof-gate",
      "properties": {
        "title": "Proof Gate",
        "category": "settlement",
        "min_zoom": 6,
        "max_zoom": 18,
        "collision_priority": 65
      },
      "geometry": { "type": "Point", "coordinates": [-159.395, -19.837] }
    },
    {
      "type": "Feature",
      "id": "label-context-way",
      "properties": {
        "title": "Context Way",
        "category": "transport",
        "min_zoom": 5,
        "max_zoom": 12,
        "collision_priority": 78
      },
      "geometry": { "type": "Point", "coordinates": [-159.72, -19.66] }
    },
    {
      "type": "Feature",
      "id": "label-north-arc",
      "properties": {
        "title": "North Arc",
        "category": "transport",
        "min_zoom": 6,
        "max_zoom": 12,
        "collision_priority": 62
      },
      "geometry": { "type": "Point", "coordinates": [-159.62, -19.398] }
    },
    {
      "type": "Feature",
      "id": "label-south-traverse",
      "properties": {
        "title": "South Traverse",
        "category": "transport",
        "min_zoom": 6,
        "max_zoom": 12,
        "collision_priority": 61
      },
      "geometry": { "type": "Point", "coordinates": [-159.49, -19.849] }
    }
  ]
}
