{
  "type": "FeatureCollection",
  "name": "Rey County authored terrain controls",
  "features": [
    {
      "type": "Feature",
      "id": "terrain-anchor-range",
      "properties": {
        "name": "Anchor Range",
        "terrain_class": "high_alpine_anchor_massif",
        "relative_elevation": 0.94,
        "roughness": 0.82,
        "basis": "56 anchor stations in the retained context survey"
      },
      "geometry": {
        "type": "Polygon",
        "coordinates": [[[-159.92, -19.54], [-159.84, -19.36], [-159.68, -19.31], [-159.61, -19.42], [-159.69, -19.58], [-159.84, -19.64], [-159.92, -19.54]]]
      }
    },
    {
      "type": "Feature",
      "id": "terrain-architecture-highlands",
      "properties": {
        "name": "Architecture Highlands",
        "terrain_class": "layered_highland",
        "relative_elevation": 0.78,
        "roughness": 0.61,
        "basis": "docs/ARCHITECTURE.md survey seed"
      },
      "geometry": {
        "type": "Polygon",
        "coordinates": [[[-159.67, -19.4], [-159.55, -19.31], [-159.4, -19.31], [-159.31, -19.43], [-159.42, -19.53], [-159.58, -19.51], [-159.67, -19.4]]]
      }
    },
    {
      "type": "Feature",
      "id": "terrain-explorer-terraces",
      "properties": {
        "name": "Explorer Terraces",
        "terrain_class": "stepped_eastern_terrace",
        "relative_elevation": 0.64,
        "roughness": 0.48,
        "basis": "docs/EXPLORER.md survey seed"
      },
      "geometry": {
        "type": "Polygon",
        "coordinates": [[[-159.39, -19.46], [-159.25, -19.4], [-159.16, -19.53], [-159.18, -19.68], [-159.33, -19.72], [-159.43, -19.6], [-159.39, -19.46]]]
      }
    },
    {
      "type": "Feature",
      "id": "terrain-runtime-basin",
      "properties": {
        "name": "Runtime Basin",
        "terrain_class": "interior_basin",
        "relative_elevation": 0.18,
        "roughness": 0.2,
        "basis": "runtime and scheduling contracts among surveyed anchors"
      },
      "geometry": {
        "type": "Polygon",
        "coordinates": [[[-159.7, -19.61], [-159.53, -19.55], [-159.4, -19.63], [-159.42, -19.79], [-159.59, -19.87], [-159.74, -19.77], [-159.7, -19.61]]]
      }
    },
    {
      "type": "Feature",
      "id": "terrain-mining-ridge",
      "properties": {
        "name": "Mining Ridge",
        "terrain_class": "mineral_ridge",
        "relative_elevation": 0.72,
        "roughness": 0.67,
        "basis": "literal UTF-8 source mining capability observed in ENV@1"
      },
      "geometry": {
        "type": "Polygon",
        "coordinates": [[[-159.93, -19.61], [-159.81, -19.57], [-159.72, -19.7], [-159.76, -19.86], [-159.9, -19.91], [-159.96, -19.77], [-159.93, -19.61]]]
      }
    },
    {
      "type": "Feature",
      "id": "terrain-proof-escarpment",
      "properties": {
        "name": "Proof Escarpment",
        "terrain_class": "southern_escarpment",
        "relative_elevation": 0.7,
        "roughness": 0.73,
        "basis": "exact evidence and proof anchors resolved by survey"
      },
      "geometry": {
        "type": "Polygon",
        "coordinates": [[[-159.48, -19.79], [-159.31, -19.72], [-159.2, -19.73], [-159.27, -19.87], [-159.51, -19.95], [-159.6, -19.88], [-159.48, -19.79]]]
      }
    },
    {
      "type": "Feature",
      "id": "terrain-anchor-summit",
      "properties": {
        "name": "Anchor Summit",
        "terrain_class": "summit_control",
        "relative_elevation": 1.0,
        "basis": "56 retained anchors"
      },
      "geometry": {"type": "Point", "coordinates": [-159.78, -19.4]}
    },
    {
      "type": "Feature",
      "id": "terrain-frontier-saddle",
      "properties": {
        "name": "Frontier Saddle",
        "terrain_class": "low_saddle_control",
        "relative_elevation": 0.34,
        "basis": "one unsupported survey probe horizon"
      },
      "geometry": {"type": "Point", "coordinates": [-159.22, -19.58]}
    }
  ]
}
